start=new Date('2023-01-01T00:00:00.000Z').valueOf();
sats=[{"MEAN_MOTION_DOT":"0.00001236","SITE":"AFETR","TLE_LINE2":"2 53399  53.2169 309.9883 0001946  37.9890 322.1239 15.08835075 22281","APOAPSIS":"541.107","REV_AT_EPOCH":"2228","DECAY_DATE":null,"OBJECT_NAME":"STARLINK-4528","NORAD_CAT_ID":"53399","REF_FRAME":"TEME","ECCENTRICITY":"0.00019460","OBJECT_ID":"2022-097M","MEAN_MOTION":"15.08835075","RA_OF_ASC_NODE":"309.9883","ELEMENT_SET_NO":"999","BSTAR":"0.00009573700000","RCS_SIZE":"LARGE","PERIOD":"95.438","ARG_OF_PERICENTER":"37.9890","COUNTRY_CODE":"US","MEAN_MOTION_DDOT":"0.0000000000000","EPHEMERIS_TYPE":"0","CLASSIFICATION_TYPE":"U","FILE":"3727965","MEAN_ELEMENT_THEORY":"SGP4","INCLINATION":"53.2169","GP_ID":"221812027","SEMIMAJOR_AXIS":"6917.895","EPOCH":"2022-12-31T14:05:40.486560","MEAN_ANOMALY":"322.1239","TIME_SYSTEM":"UTC","OBJECT_TYPE":"PAYLOAD","CENTER_NAME":"EARTH","LAUNCH_DATE":"2022-08-10","PERIAPSIS":"538.414","TLE_LINE1":"1 53399U 22097M   22365.58727415  .00001236  00000-0  95737-4 0  9993"},{"DECAY_DATE":null,"REV_AT_EPOCH":"2281","NORAD_CAT_ID":"53400","OBJECT_NAME":"STARLINK-4520","REF_FRAME":"TEME","ECCENTRICITY":"0.00027830","MEAN_MOTION_DOT":"0.00001023","APOAPSIS":"541.596","TLE_LINE2":"2 53400  53.2195 308.8886 0002783  33.9216 326.1954 15.08864563 22813","SITE":"AFETR","RCS_SIZE":"LARGE","PERIOD":"95.436","MEAN_MOTION_DDOT":"0.0000000000000","ARG_OF_PERICENTER":"33.9216","COUNTRY_CODE":"US","MEAN_MOTION":"15.08864563","OBJECT_ID":"2022-097N","ELEMENT_SET_NO":"999","RA_OF_ASC_NODE":"308.8886","BSTAR":"0.00008232400000","MEAN_ELEMENT_THEORY":"SGP4","FILE":"3728081","INCLINATION":"53.2195","GP_ID":"221892432","EPHEMERIS_TYPE":"0","CLASSIFICATION_TYPE":"U","OBJECT_TYPE":"PAYLOAD","CENTER_NAME":"EARTH","TLE_LINE1":"1 53400U 22097N   22365.83013604  .00001023  00000-0  82324-4 0  9994","PERIAPSIS":"537.745","LAUNCH_DATE":"2022-08-10","SEMIMAJOR_AXIS":"6917.805","EPOCH":"2022-12-31T19:55:23.753856","MEAN_ANOMALY":"326.1954","TIME_SYSTEM":"UTC"},{"NORAD_CAT_ID":"53401","OBJECT_NAME":"STARLINK-4525","DECAY_DATE":null,"REV_AT_EPOCH":"2281","ECCENTRICITY":"0.00032950","REF_FRAME":"TEME","MEAN_MOTION_DOT":"0.00009694","TLE_LINE2":"2 53401  53.2166 308.8302 0003295  43.7057 316.4196 15.08877283 22819","APOAPSIS":"541.911","SITE":"AFETR","PERIOD":"95.435","RCS_SIZE":"LARGE","MEAN_MOTION_DDOT":"0.0000000000000","ARG_OF_PERICENTER":"43.7057","COUNTRY_CODE":"US","ELEMENT_SET_NO":"999","RA_OF_ASC_NODE":"308.8302","OBJECT_ID":"2022-097P","MEAN_MOTION":"15.08877283","BSTAR":"0.00062567000000","INCLINATION":"53.2166","MEAN_ELEMENT_THEORY":"SGP4","FILE":"3728081","GP_ID":"221892657","EPHEMERIS_TYPE":"0","CLASSIFICATION_TYPE":"U","OBJECT_TYPE":"PAYLOAD","TLE_LINE1":"1 53401U 22097P   22365.84485697  .00009694  00000-0  62567-3 0  9999","PERIAPSIS":"537.352","LAUNCH_DATE":"2022-08-10","CENTER_NAME":"EARTH","MEAN_ANOMALY":"316.4196","SEMIMAJOR_AXIS":"6917.766","EPOCH":"2022-12-31T20:16:35.642208","TIME_SYSTEM":"UTC"},{"OBJECT_TYPE":"PAYLOAD","CENTER_NAME":"EARTH","LAUNCH_DATE":"2022-08-10","TLE_LINE1":"1 53402U 22097Q   22365.82647503 -.00011357  00000-0 -69670-3 0  9997","PERIAPSIS":"538.804","SEMIMAJOR_AXIS":"6917.900","EPOCH":"2022-12-31T19:50:07.442592","MEAN_ANOMALY":"287.5686","TIME_SYSTEM":"UTC","MEAN_ELEMENT_THEORY":"SGP4","FILE":"3728081","INCLINATION":"53.2172","GP_ID":"221893344","EPHEMERIS_TYPE":"0","CLASSIFICATION_TYPE":"U","RCS_SIZE":"LARGE","PERIOD":"95.438","ARG_OF_PERICENTER":"72.5458","COUNTRY_CODE":"US","MEAN_MOTION_DDOT":"0.0000000000000","OBJECT_ID":"2022-097Q","MEAN_MOTION":"15.08833520","RA_OF_ASC_NODE":"308.8970","ELEMENT_SET_NO":"999","BSTAR":"-0.00069670000000","REV_AT_EPOCH":"2281","DECAY_DATE":null,"OBJECT_NAME":"STARLINK-4499","NORAD_CAT_ID":"53402","REF_FRAME":"TEME","ECCENTRICITY":"0.00013900","MEAN_MOTION_DOT":"-0.00011357","TLE_LINE2":"2 53402  53.2172 308.8970 0001390  72.5458 287.5686 15.08833520 22815","APOAPSIS":"540.727","SITE":"AFETR"},{"CENTER_NAME":"EARTH","TLE_LINE1":"1 53403U 22097R   22365.57350329  .00006749  00000-0  44151-3 0  9991","PERIAPSIS":"538.122","LAUNCH_DATE":"2022-08-10","OBJECT_TYPE":"PAYLOAD","TIME_SYSTEM":"UTC","SEMIMAJOR_AXIS":"6917.829","EPOCH":"2022-12-31T13:45:50.684256","MEAN_ANOMALY":"328.2239","GP_ID":"221893998","MEAN_ELEMENT_THEORY":"SGP4","FILE":"3728081","INCLINATION":"53.2175","CLASSIFICATION_TYPE":"U","EPHEMERIS_TYPE":"0","MEAN_MOTION_DDOT":"0.0000000000000","ARG_OF_PERICENTER":"31.8891","COUNTRY_CODE":"US","RCS_SIZE":"LARGE","PERIOD":"95.436","BSTAR":"0.00044151000000","MEAN_MOTION":"15.08856853","OBJECT_ID":"2022-097R","ELEMENT_SET_NO":"999","RA_OF_ASC_NODE":"310.0343","REF_FRAME":"TEME","ECCENTRICITY":"0.00022720","DECAY_DATE":null,"REV_AT_EPOCH":"2277","NORAD_CAT_ID":"53403","OBJECT_NAME":"STARLINK-4507","SITE":"AFETR","TLE_LINE2":"2 53403  53.2175 310.0343 0002272  31.8891 328.2239 15.08856853 22773","APOAPSIS":"541.266","MEAN_MOTION_DOT":"0.00006749"},{"MEAN_MOTION_DOT":"0.00011699","SITE":"AFETR","TLE_LINE2":"2 53404  53.2145 298.9443 0002722  44.9818 315.1394 15.08880388 22946","APOAPSIS":"541.505","REV_AT_EPOCH":"2294","DECAY_DATE":null,"OBJECT_NAME":"STARLINK-4509","NORAD_CAT_ID":"53404","REF_FRAME":"TEME","ECCENTRICITY":"0.00027220","OBJECT_ID":"2022-097S","MEAN_MOTION":"15.08880388","RA_OF_ASC_NODE":"298.9443","ELEMENT_SET_NO":"999","BSTAR":"0.00075108000000","RCS_SIZE":"LARGE","PERIOD":"95.435","ARG_OF_PERICENTER":"44.9818","COUNTRY_CODE":"US","MEAN_MOTION_DDOT":"0.0000000000000","EPHEMERIS_TYPE":"0","CLASSIFICATION_TYPE":"U","MEAN_ELEMENT_THEORY":"SGP4","FILE":"3728081","INCLINATION":"53.2145","GP_ID":"221892894","EPOCH":"2022-12-31T19:35:32.221824","SEMIMAJOR_AXIS":"6917.757","MEAN_ANOMALY":"315.1394","TIME_SYSTEM":"UTC","OBJECT_TYPE":"PAYLOAD","CENTER_NAME":"EARTH","LAUNCH_DATE":"2022-08-10","PERIAPSIS":"537.739","TLE_LINE1":"1 53404U 22097S   22365.81634516  .00011699  00000-0  75108-3 0  9998"},{"BSTAR":"0.00033837000000","MEAN_MOTION":"15.08854892","OBJECT_ID":"2022-097T","ELEMENT_SET_NO":"999","RA_OF_ASC_NODE":"310.1156","MEAN_MOTION_DDOT":"0.0000000000000","ARG_OF_PERICENTER":"52.7903","COUNTRY_CODE":"US","RCS_SIZE":"LARGE","PERIOD":"95.437","APOAPSIS":"541.146","TLE_LINE2":"2 53405  53.2168 310.1156 0002091  52.7903 307.3280 15.08854892 22770","SITE":"AFETR","MEAN_MOTION_DOT":"0.00005103","REF_FRAME":"TEME","ECCENTRICITY":"0.00020910","DECAY_DATE":null,"REV_AT_EPOCH":"2277","NORAD_CAT_ID":"53405","OBJECT_NAME":"STARLINK-4510","TIME_SYSTEM":"UTC","SEMIMAJOR_AXIS":"6917.835","EPOCH":"2022-12-31T13:23:16.369440","MEAN_ANOMALY":"307.3280","CENTER_NAME":"EARTH","TLE_LINE1":"1 53405U 22097T   22365.55782835  .00005103  00000-0  33837-3 0  9994","PERIAPSIS":"538.253","LAUNCH_DATE":"2022-08-10","OBJECT_TYPE":"PAYLOAD","CLASSIFICATION_TYPE":"U","EPHEMERIS_TYPE":"0","GP_ID":"221893119","FILE":"3728081","MEAN_ELEMENT_THEORY":"SGP4","INCLINATION":"53.2168"},{"ELEMENT_SET_NO":"999","RA_OF_ASC_NODE":"300.2136","MEAN_MOTION":"15.08846447","OBJECT_ID":"2022-097U","BSTAR":"0.00029859000000","PERIOD":"95.437","RCS_SIZE":"LARGE","MEAN_MOTION_DDOT":"0.0000000000000","COUNTRY_CODE":"US","ARG_OF_PERICENTER":"37.7291","MEAN_MOTION_DOT":"0.00004468","TLE_LINE2":"2 53406  53.2171 300.2136 0002515  37.7291 322.3877 15.08846447 22908","SITE":"AFETR","APOAPSIS":"541.466","NORAD_CAT_ID":"53406","OBJECT_NAME":"STARLINK-4533","DECAY_DATE":null,"REV_AT_EPOCH":"2290","ECCENTRICITY":"0.00025150","REF_FRAME":"TEME","MEAN_ANOMALY":"322.3877","SEMIMAJOR_AXIS":"6917.861","EPOCH":"2022-12-31T12:47:29.800320","TIME_SYSTEM":"UTC","OBJECT_TYPE":"PAYLOAD","TLE_LINE1":"1 53406U 22097U   22365.53298380  .00004468  00000-0  29859-3 0  9992","PERIAPSIS":"537.986","LAUNCH_DATE":"2022-08-10","CENTER_NAME":"EARTH","EPHEMERIS_TYPE":"0","CLASSIFICATION_TYPE":"U","INCLINATION":"53.2171","MEAN_ELEMENT_THEORY":"SGP4","FILE":"3727988","GP_ID":"221838162"},{"DECAY_DATE":null,"REV_AT_EPOCH":"2305","NORAD_CAT_ID":"53407","OBJECT_NAME":"STARLINK-4537","REF_FRAME":"TEME","ECCENTRICITY":"0.00017500","MEAN_MOTION_DOT":"0.00004164","TLE_LINE2":"2 53407  53.2197 290.1202 0001750  64.9355 295.1819 15.08844434 23055","APOAPSIS":"540.942","SITE":"AFETR","RCS_SIZE":"LARGE","PERIOD":"95.437","MEAN_MOTION_DDOT":"0.0000000000000","ARG_OF_PERICENTER":"64.9355","COUNTRY_CODE":"US","OBJECT_ID":"2022-097V","MEAN_MOTION":"15.08844434","ELEMENT_SET_NO":"999","RA_OF_ASC_NODE":"290.1202","BSTAR":"0.00027950000000","FILE":"3728081","MEAN_ELEMENT_THEORY":"SGP4","INCLINATION":"53.2197","GP_ID":"221893559","EPHEMERIS_TYPE":"0","CLASSIFICATION_TYPE":"U","OBJECT_TYPE":"PAYLOAD","CENTER_NAME":"EARTH","TLE_LINE1":"1 53407U 22097V   22365.60752562  .00004164  00000-0  27950-3 0  9991","PERIAPSIS":"538.521","LAUNCH_DATE":"2022-08-10","SEMIMAJOR_AXIS":"6917.867","EPOCH":"2022-12-31T14:34:50.213568","MEAN_ANOMALY":"295.1819","TIME_SYSTEM":"UTC"},{"OBJECT_ID":"2022-097W","MEAN_MOTION":"15.08847252","ELEMENT_SET_NO":"999","RA_OF_ASC_NODE":"300.1686","BSTAR":"0.00029283000000","RCS_SIZE":"LARGE","PERIOD":"95.437","MEAN_MOTION_DDOT":"0.0000000000000","ARG_OF_PERICENTER":"34.2683","COUNTRY_CODE":"US","MEAN_MOTION_DOT":"0.00004376","SITE":"AFETR","TLE_LINE2":"2 53408  53.2164 300.1686 0002152  34.2683 325.8448 15.08847252 22902","APOAPSIS":"541.212","DECAY_DATE":null,"REV_AT_EPOCH":"2290","NORAD_CAT_ID":"53408","OBJECT_NAME":"STARLINK-4491","REF_FRAME":"TEME","ECCENTRICITY":"0.00021520","EPOCH":"2022-12-31T13:03:23.277888","SEMIMAJOR_AXIS":"6917.858","MEAN_ANOMALY":"325.8448","TIME_SYSTEM":"UTC","OBJECT_TYPE":"PAYLOAD","CENTER_NAME":"EARTH","TLE_LINE1":"1 53408U 22097W   22365.54401942  .00004376  00000-0  29283-3 0  9994","PERIAPSIS":"538.234","LAUNCH_DATE":"2022-08-10","EPHEMERIS_TYPE":"0","CLASSIFICATION_TYPE":"U","MEAN_ELEMENT_THEORY":"SGP4","FILE":"3727988","INCLINATION":"53.2164","GP_ID":"221838607"}];
